[
    {
        "Altitude(m)": 617719.7204439524,
        "Argument of Periapsis(deg)": 0.0,
        "Eccentricity": 0.0,
        "Inclination(deg)": 60.0,
        "Latitude(deg)": -41.10250339443323,
        "Longitude(deg)": 75.09466556529334,
        "Mean Anomaly(deg)": -130.9091,
        "RAAN(deg)": 325.0,
        "Satellite Name": "Test1 1444",
        "Satellite Number": 1444,
        "Semi-Major Axis(m)": 6980739.136638005,
        "Time(s)": 0
    },
    {
        "Altitude(m)": 617911.2561746974,
        "Argument of Periapsis(deg)": 0.00010418945913296404,
        "Eccentricity": 0.0,
        "Inclination(deg)": 60.0,
        "Latitude(deg)": -41.56569520047442,
        "Longitude(deg)": 75.59907135790627,
        "Mean Anomaly(deg)": -130.28899385453815,
        "RAAN(deg)": 324.99957995086027,
        "Satellite Name": "Test1 1444",
        "Satellite Number": 1444,
        "Semi-Major Axis(m)": 6980739.136638005,
        "Time(s)": 10
    }
]